ONEWEB-0435             
1 51632U 22012L   25174.54439783 -.00000422  00000+0 -12446-2 0  9994
2 51632  87.8833 107.8045 0002142  90.1942 269.9430 13.10374182162344
ONEWEB-0436             
1 51633U 22012M   25174.48974169  .00000047  00000+0  88312-4 0  9998
2 51633  87.9063  77.2547 0002059  83.4284 276.7081 13.17648384166447
ONEWEB-0439             
1 51635U 22012P   25174.76020433 -.00000588  00000+0 -17211-2 0  9997
2 51635  87.8836 107.7510 0001976  80.9613 279.1738 13.10372861162382
ONEWEB-0442             
1 51636U 22012Q   25174.48214841  .00000006  00000+0 -18562-4 0  9991
2 51636  87.9072  77.3066 0001738  58.5859 301.5442 13.17649989166430
ONEWEB-0444             
1 51638U 22012S   25174.82660855 -.00000319  00000+0 -95147-3 0  9992
2 51638  87.8825 107.7403 0001939  83.5911 276.5437 13.10369524162405
ONEWEB-0445             
1 51639U 22012T   25174.77181888 -.00000694  00000+0 -20241-2 0  9999
2 51639  87.8822 107.7053 0002055  73.3108 286.8245 13.10374284162409
